library_type_3,name,street_address,city,latitude,longitude
Public,Ashburton Library,"2 Baring Square East
Ashburton 7700
New Zealand",NA,-43.904030515768,171.749972827616
Public,Auckland Libraries,"Central City Library
44-46 Lorne Street
Auckland 1010
New Zealand",Auckland,-36.851736,174.7653855
Public,Auckland Libraries Corporate Information Service,"Level 13, Auckland House
135 Albert Street
Auckland 1010
New Zealand",Auckland,-36.850033075013,174.762577859109
Public,Buller District Libraries,"87- 89 Palmerston St
Westport 7825
New Zealand",NA,-41.751876353239,171.597970381044
Public,Carterton District Library,"50 Holloway Street
Carterton 5713
New Zealand",NA,-41.025549178489,175.528709206511
Public,Central Hawkes Bay District Libraries,"High Street
Waipawa 4210
New Zealand",NA,-39.941495938174,176.589773958703
Public,Central Otago District Libraries,"43 Tarbert Street
Alexandra 9320
New Zealand",NA,-45.256073328485,169.393074355865
Public,Christchurch City Libraries,"60 Cathedral Square
Christchurch 8011
New Zealand",Christchurch,-43.530132045751,172.637163918762
Public,Clutha District Libraries,"23 John Street
Balclutha 9230
New Zealand",NA,-46.240234015509,169.739725185359
Public,Dunedin Public Libraries,"230 Moray Place
Dunedin 9016
New Zealand",Dunedin,-45.872753954433,170.503658508185
Public,Far North District Libraries,"Procter Library,
6 Cobham Road,
Kerikeri 0230,
New Zealand",NA,-35.227932261875,173.949421771778
Public,Gore District Libraries,"10C Ardwick Street
Gore 9710
New Zealand",NA,-46.102538675118,168.941163965008
Public,Grey District Library,"18 Albert Street
Greymouth 7805
New Zealand",NA,-42.44884130659,171.209458173816
Public,Hamilton City Libraries,"9 Garden Place
Hamilton 3240
New Zealand",Hamilton,-37.787856896309,175.282361048871
Public,Hastings District Libraries,"cnr Eastbourne & Warren Streets
Hastings 4122
New Zealand",NA,-39.644396691418,176.844070207721
Public,Hauraki District Libraries,"5 Mackay Street
Paeroa 3600
New Zealand",NA,-37.380134261856,175.671371713128
Public,HB Williams Memorial Library,"34 Bright Street
Gisborne 4010
New Zealand",NA,-38.665274478805,178.025526366208
Public,Horowhenua District Council,"10 Bath Street
Levin 5510
New Zealand",NA,-40.62307830929,175.284046817238
Public,Hurunui District Library,"111 Carters Road
Amberley 7410
New Zealand",NA,-43.155013589726,172.730294406754
Public,Hutt City Libraries,"c/- War Memorial Library,
2 Queens Drive,
Lower Hutt 5010,
New Zealand",NA,-41.211804706236,174.900454969565
Public,Invercargill City Libraries,"50 Dee Street
Invercargill 9840
New Zealand",NA,-46.411142119398,168.347045783115
Public,Kaikōura District Library,"Civic Building, Level 1
96 West End
Kaikoura 7300
New Zealand",NA,-42.402701947094,173.682407780403
Public,Kaipara District Libraries,"Dargaville Public Library,
71 Normanby Street,
Dargaville 0310,
New Zealand",NA,-35.940270775901,173.869922772921
Public,Kāpiti Coast District Libraries,"9 Iver Trask Place
Paraparaumu 5032
New Zealand",NA,-40.914802827094,175.002548619615
Public,Kawerau District Library,"Jellicoe Court
Kawerau 3127
New Zealand",NA,-38.087160007983,176.7019895209
Public,Mackenzie Community Library,"Kirke Street
Fairlie
New Zealand",NA,-44.101171866879,170.827395437827
Public,Manawatū Community Hub Libraries,"64 Stafford Street,
Feilding 4702,
New Zealand",NA,-40.224287388951,175.565301075375
Public,Marlborough District Libraries,"15 High Street,
Blenheim Central,
Blenheim 7201,
New Zealand",NA,-41.512105456326,173.957979443464
Public,Masterton District Library,"54 Queen Street
Masterton 5810
New Zealand",NA,-40.948725683125,175.663104139112
Public,Matamata-Piako District Libraries,"Matamata Public Library
12 Tainui Street
Matamata 3400
New Zealand",NA,-37.811527851881,175.774042315676
Public,Napier Libraries,"1 Tennyson Street
Napier 4110
New Zealand",NA,-39.489088323661,176.919051444586
Public,Nelson Public Libraries,"27 Halifax Street
Nelson 7010
New Zealand",NA,-41.270574629898,173.28307094671
Public,Ōpōtiki District Library,"101 Church Street
Opotiki 3122
New Zealand",NA,-38.006160672757,177.284375353383
Public,Ōtorohanga District Library,"27 Turongo Street
Ōtorohanga 3900
New Zealand",NA,-38.185629331593,175.210121616353
Public,Palmerston North City Library,"4-11 The Square
Palmerston North 4410
New Zealand",NA,-40.356223322617,175.609544783649
Public,Porirua Public Library,"Cnr Norrie & Parumoana Sts
Porirua 5022
New Zealand",NA,-41.131527615307,174.840058914777
Public,Puke Ariki - New Plymouth District Libraries,"1 Ariki Street
New Plymouth 4310
New Zealand",NA,-39.057076694005,174.073639565182
Public,Queenstown Lakes District Library,"10 Gorge Road,
Queenstown 9300,
New Zealand",NA,-45.028987659621,168.661595978151
Public,Rangitīkei District Council Libraries,"31 High Street
Marton 4710
New Zealand",NA,-40.068726977365,175.375911302574
Public,Rotorua Library Te Aka Mauri,"1127 Haupapa Street
Rotorua 3010
New Zealand",NA,-38.135666776512,176.25280857843
Public,Ruapehu District Libraries,"59-63 Huia Street
Taumarunui 3920",NA,-38.885489706362,175.263983726159
Public,Selwyn Library,"1 South Terrace
Darfield 7510
New Zealand",NA,-43.490587441945,172.117262460346
Public,South Taranaki District Libraries,"46 High Street
Hawera 4610
New Zealand",NA,-39.589333748254,174.28453478696
Public,South Waikato District Libraries,"211 Leith Place,
Tokoroa 3420,
New Zealand",NA,-38.218119097044,175.872607964963
Public,South Wairarapa District Libraries,"6 Kitchener Street
Martinborough 5711
New Zealand",NA,-41.217569402055,175.458813102664
Public,Southland District Libraries,"1 Wemyss Street,
Winton 9720,
New Zealand",NA,-46.142376729354,168.323672929929
Public,Stratford & District Centennial Library,"Prospero Place
Stratford 4332
New Zealand",NA,-39.339720568387,174.284164281822
Public,Tararua District Library,"1 Station Street
Dannevirke 4930
New Zealand",NA,-40.209247865812,176.096683561847
Public,Tasman District Libraries,"280 Queen Street
Richmond 7020
New Zealand",NA,-41.338139558834,173.183783783197
Public,Tasman District Libraries: Motueka,"Motueka Public Library
32 Wallace Street
Motueka 7120",NA,-41.111743515875,173.013123037765
Public,Tasman District Libraries: Tākaka Memorial Library,"3 Junction Street
Tākaka 7110
New Zealand",NA,-40.858974401308,172.804964675012
Public,Taupō District Libraries,"Story Place
Taupo 3330
New Zealand",NA,-38.687092755818,176.068052908313
Public,Tauranga City Libraries,"21 Devonport Road
Tauranga 3110
New Zealand",NA,-37.684976746181,176.169433116992
Public,Thames-Coromandel District Libraries,"503 Mackay Street
Thames 3500
New Zealand",NA,-37.139208189742,175.543661348309
Public,Timaru District Libraries,"56 Sophia Street
Timaru 7910
New Zealand",NA,-44.395722050404,171.250709710294
Public,Upper Hutt Libraries,"844 Ferguson Drive
Upper Hutt 5018
New Zealand",NA,-41.125876033272,175.068562335832
Public,Waikato District Libraries,"7 Bow Street
Raglan 3225
New Zealand",NA,-37.799964429717,174.868196293185
Public,Waimakariri District Libraries,"141 Percival Street
Rangiora 7400
New Zealand",NA,-43.304347182594,172.593436078676
Public,Waimate District Library,"Queen Street
Waimate 7924
New Zealand",NA,-44.736602721172,171.043225023387
Public,Waipā District Libraries,"c/o Cambridge Public Library
23 Wilson Street
Cambridge 3434
New Zealand",NA,-37.8961693,175.4697319
Public,Wairoa Centennial Library,"212 Marine Parade
Wairoa 4108
New Zealand",NA,-39.033710085337,177.423123678855
Public,Waitaki District Libraries,"62 Thames Street
Oamaru 9400
New Zealand",NA,-45.099722856997,170.969724515513
Public,Waitomo District Library,"Taupiri Street
Te Kuiti 3910
New Zealand",NA,-38.335189532757,175.167370243599
Public,Wanaka Public Library,"1 Bullock Creek Lane
Wanaka 9305
New Zealand",NA,-44.695319894094,169.13723067806
Public,Wellington City Libraries,"65 Victoria Street
Wellington 6011
New Zealand",Wellington,-41.288127718162,174.776531213325
Public,Western Bay of Plenty District Libraries,"16 Talisman Drive
Katikati 3129
New Zealand",NA,-37.553948416898,175.91785627154
Public,Westland District Library,"20 Sewell Street
Hokitika 7810
New Zealand",NA,-42.718905640169,170.963248652855
Public,Whakatāne Libraries and Galleries,"49 Kakahoroa Drive
Whakatane 3120
New Zealand",NA,-37.950523485407,176.993899995924
Public,Whanganui District Library,"Queens Park
Whanganui 4500
New Zealand",NA,-39.9306998,175.0550495
Public,Whangārei Libraries,"5 Rust Avenue
Whangarei 110
New Zealand",NA,-35.724269508256,174.318526170365
Public,Wairarapa Library Service,"50 Holloway Street
Carterton 5713
New Zealand",NA,-41.025549178489,175.528709206511
